exposure,Dataset_ID,Lat,Long,Species,Cstock25_Mgha,ECO_CODE,ECOREGION,PROV_CODE,PROVINCE,RLM_CODE,REALM,ALT_CODE,Lat_Zone,extr_exposure,Site_name,geometry
16975.58,ID_101,48.315253,-122.477643,Z.marina,25.0,25056.0,Puget Trough/Georgia Basin,10.0,Cold Temperate Northeast Pacific,3.0,Temperate Northern Pacific,55.0,Temperate,33978.43,Skagit Bay,POINT (-122.477643 48.315253)
16975.58,ID_102,48.315253,-122.477643,Bare,13.39,25056.0,Puget Trough/Georgia Basin,10.0,Cold Temperate Northeast Pacific,3.0,Temperate Northern Pacific,55.0,Temperate,33978.43,Skagit Bay,POINT (-122.477643 48.315253)
16945.96,ID_103,48.546686,-122.531504,Bare,30.55,25056.0,Puget Trough/Georgia Basin,10.0,Cold Temperate Northeast Pacific,3.0,Temperate Northern Pacific,55.0,Temperate,30181.2,Padilla Bay,POINT (-122.531504 48.546686)
16945.96,ID_104,48.546686,-122.531504,Z.marina,11.8,25056.0,Puget Trough/Georgia Basin,10.0,Cold Temperate Northeast Pacific,3.0,Temperate Northern Pacific,55.0,Temperate,30181.2,Padilla Bay,POINT (-122.531504 48.546686)
12801.49,ID_105,48.504,-122.519,Z.marina,14.35,25056.0,Puget Trough/Georgia Basin,10.0,Cold Temperate Northeast Pacific,3.0,Temperate Northern Pacific,55.0,Temperate,23456.41,Padilla Bay,POINT (-122.519 48.504)
10154.45,ID_106,48.584784,-122.464538,Z.marina,13.36,25056.0,Puget Trough/Georgia Basin,10.0,Cold Temperate Northeast Pacific,3.0,Temperate Northern Pacific,55.0,Temperate,11211.32,Samish Bay,POINT (-122.464538 48.584784)
10154.45,ID_107,48.584784,-122.464538,Bare,11.29,25056.0,Puget Trough/Georgia Basin,10.0,Cold Temperate Northeast Pacific,3.0,Temperate Northern Pacific,55.0,Temperate,11211.32,Samish Bay,POINT (-122.464538 48.584784)
7501.5,ID_108,51.81,-128.2408,Z.marina,22.18,25055.0,North American Pacific Fijordland,10.0,Cold Temperate Northeast Pacific,3.0,Temperate Northern Pacific,52.0,Temperate,5575.04,Triquet Bay,POINT (-128.2408 51.81)
7501.5,ID_109,51.81,-128.2408,Bare,14.47,25055.0,North American Pacific Fijordland,10.0,Cold Temperate Northeast Pacific,3.0,Temperate Northern Pacific,52.0,Temperate,5575.04,Triquet Bay,POINT (-128.2408 51.81)
17706.71,ID_110,48.322228,-122.494742,Bare,7.96,25056.0,Puget Trough/Georgia Basin,10.0,Cold Temperate Northeast Pacific,3.0,Temperate Northern Pacific,55.0,Temperate,38592.46,Skagit Bay,POINT (-122.494742 48.322228)
17706.71,ID_111,48.322228,-122.494742,Z.marina,10.05,25056.0,Puget Trough/Georgia Basin,10.0,Cold Temperate Northeast Pacific,3.0,Temperate Northern Pacific,55.0,Temperate,38592.46,Skagit Bay,POINT (-122.494742 48.322228)
13209.85,ID_112,48.548081,-122.504792,Bare,15.28,25056.0,Puget Trough/Georgia Basin,10.0,Cold Temperate Northeast Pacific,3.0,Temperate Northern Pacific,55.0,Temperate,19807.53,Padilla Bay,POINT (-122.504792 48.548081)
13209.85,ID_113,48.548081,-122.504792,Z.marina,7.96,25056.0,Puget Trough/Georgia Basin,10.0,Cold Temperate Northeast Pacific,3.0,Temperate Northern Pacific,55.0,Temperate,19807.53,Padilla Bay,POINT (-122.504792 48.548081)
13851.2,ID_114,51.775,-127.88,Z.marina,14.14,25055.0,North American Pacific Fijordland,10.0,Cold Temperate Northeast Pacific,3.0,Temperate Northern Pacific,52.0,Temperate,5337.65,Koeye Estuary,POINT (-127.88 51.775)
13851.2,ID_115,51.775,-127.88,Bare,,25055.0,North American Pacific Fijordland,10.0,Cold Temperate Northeast Pacific,3.0,Temperate Northern Pacific,52.0,Temperate,5337.65,Koeye Estuary,POINT (-127.88 51.775)
583.68,ID_116,55.73361,-133.2904,Z.marina,13.71,25055.0,North American Pacific Fijordland,10.0,Cold Temperate Northeast Pacific,3.0,Temperate Northern Pacific,52.0,Temperate,607.57,Kaguk Cove,POINT (-133.2904 55.73361)
8745.15,ID_117,58.262678,11.492692,Z.marina,58.55,20025.0,North Sea,2.0,Northern European Seas,2.0,Temperate Northern Atlantic,32.0,Temperate,16083.5,Lindholmen,POINT (11.492692 58.262678)
830.38,ID_118,58.36166,11.566254,Z.marina,73.09,20025.0,North Sea,2.0,Northern European Seas,2.0,Temperate Northern Atlantic,32.0,Temperate,1081.87,Snäckebackebukten,POINT (11.566254 58.36166)
9056.8,ID_119,37.968547,-122.41731,Z.marina,8.57,25058.0,Northern California,10.0,Cold Temperate Northeast Pacific,3.0,Temperate Northern Pacific,53.0,Temperate,15017.13,Point San Pablo,POINT (-122.41731 37.968547)
37102.37,ID_120,55.309749,10.831029,Z.marina,3.39,20025.0,North Sea,2.0,Northern European Seas,2.0,Temperate Northern Atlantic,32.0,Temperate,49480.53,Nyborg,POINT (10.831029 55.309749)
5090.63,ID_121,56.623076,9.283356,Z.marina,16.7,20025.0,North Sea,2.0,Northern European Seas,2.0,Temperate Northern Atlantic,32.0,Temperate,6447.05,Lovns,POINT (9.283355999999999 56.623076)
12934.81,ID_122,60.030153,21.708111,Z.marina,8.49,20024.0,Baltic Sea,2.0,Northern European Seas,2.0,Temperate Northern Atlantic,29.0,Temperate,21465.35,HummelskÃ¤r,POINT (21.708111 60.030153)
261456.71,ID_123,43.446278,3.65536,Z.marina,87.93,25035.0,Western Mediterranean,4.0,Mediterranean Sea,2.0,Temperate Northern Atlantic,0.0,Temperate,513596.94,Bouzigues,POINT (3.65536 43.446278)
84544.99,ID_124,59.825605,23.081648,Z.marina,5.21,20024.0,Baltic Sea,2.0,Northern European Seas,2.0,Temperate Northern Atlantic,29.0,Temperate,183122.81,Ryssholmen,POINT (23.081648 59.825605)
6362.93,ID_125,56.690036,8.578149,Z.marina,7.14,20025.0,North Sea,2.0,Northern European Seas,2.0,Temperate Northern Atlantic,32.0,Temperate,11956.99,Agero 12,POINT (8.578149 56.690036)
1458.47,ID_126,54.190749,-130.239591,Z.marina,13.62,25055.0,North American Pacific Fijordland,10.0,Cold Temperate Northeast Pacific,3.0,Temperate Northern Pacific,52.0,Temperate,1656.39,Prince Rupert,POINT (-130.239591 54.190749)
1918.0,ID_127,37.220544,-76.400046,Z.marina,8.66,20041.0,Virginian,5.0,Cold Temperate Northwest Atlantic,2.0,Temperate Northern Atlantic,26.0,Temperate,3071.09,Goodwin Islands,POINT (-76.400046 37.220544)
7021.3,ID_128,44.613158,-124.013191,Z.marina,39.34,25057.0,"Oregon, Washington, Vancouver Coast and Shelf",10.0,Cold Temperate Northeast Pacific,3.0,Temperate Northern Pacific,54.0,Temperate,11687.95,Yaquina Bay,POINT (-124.013191 44.613158)
2122.35,ID_129,43.314031,-124.320779,Z.marina,33.44,25057.0,"Oregon, Washington, Vancouver Coast and Shelf",10.0,Cold Temperate Northeast Pacific,3.0,Temperate Northern Pacific,54.0,Temperate,2979.51,Valino Island (25.1),POINT (-124.320779 43.314031)
1228.47,ID_130,43.3137,-124.3191,Z.marina,72.07,25057.0,"Oregon, Washington, Vancouver Coast and Shelf",10.0,Cold Temperate Northeast Pacific,3.0,Temperate Northern Pacific,54.0,Temperate,1707.02,Valino Island ,POINT (-124.3191 43.3137)
1380.29,ID_131,50.631167,-2.562028,Z.marina,28.5,20026.0,Celtic Seas,2.0,Northern European Seas,2.0,Temperate Northern Atlantic,30.0,Temperate,1744.66,Fleet,POINT (-2.562028 50.631167)
3520.38,ID_132,50.3571,-4.153,Z.marina,86.5,20026.0,Celtic Seas,2.0,Northern European Seas,2.0,Temperate Northern Atlantic,30.0,Temperate,6208.72,Drakes Island,POINT (-4.153 50.3571)
49819.44,ID_133,50.3605,-4.1604,Z.marina,32.53,20026.0,Celtic Seas,2.0,Northern European Seas,2.0,Temperate Northern Atlantic,30.0,Temperate,88105.18,Firestone Bay,POINT (-4.1604 50.3605)
22969.98,ID_134,50.3101,-4.06574,Z.marina,28.83,20026.0,Celtic Seas,2.0,Northern European Seas,2.0,Temperate Northern Atlantic,30.0,Temperate,45202.5,Yealm CC,POINT (-4.06574 50.3101)
117392.67,ID_135,50.311737,-4.070644,Z.marina,23.97,20026.0,Celtic Seas,2.0,Northern European Seas,2.0,Temperate Northern Atlantic,30.0,Temperate,204808.32,Tomb Rock,POINT (-4.070644 50.311737)
92312.12,ID_136,50.3532,-4.4418,Z.marina,26.43,20026.0,Celtic Seas,2.0,Northern European Seas,2.0,Temperate Northern Atlantic,30.0,Temperate,163513.07,Looe,POINT (-4.4418 50.3532)
13613.12,ID_137,50.4032,-3.5216,Z.marina,31.75,20026.0,Celtic Seas,2.0,Northern European Seas,2.0,Temperate Northern Atlantic,30.0,Temperate,24781.11,Fishcombe Cove,POINT (-3.5216 50.4032)
27683.46,ID_138,50.4049,-3.5448,Z.marina,33.44,20026.0,Celtic Seas,2.0,Northern European Seas,2.0,Temperate Northern Atlantic,30.0,Temperate,56776.09,Elbery Cove,POINT (-3.5448 50.4049)
128965.57,ID_139,50.3411,-4.1303,Z.marina,32.73,20026.0,Celtic Seas,2.0,Northern European Seas,2.0,Temperate Northern Atlantic,30.0,Temperate,243754.51,Jennycliff Bay,POINT (-4.1303 50.3411)
39309.85,ID_140,50.4646,-3.4879,Z.marina,25.39,20026.0,Celtic Seas,2.0,Northern European Seas,2.0,Temperate Northern Atlantic,30.0,Temperate,80794.97,Hopes Cove,POINT (-3.4879 50.4646)
17240.63,ID_141,50.3312,-4.1982,Z.marina,34.37,20026.0,Celtic Seas,2.0,Northern European Seas,2.0,Temperate Northern Atlantic,30.0,Temperate,25441.86,Cawsands,POINT (-4.1982 50.3312)
16410.0,ID_142,50.4607,-3.5337,Z.marina,29.95,20026.0,Celtic Seas,2.0,Northern European Seas,2.0,Temperate Northern Atlantic,30.0,Temperate,26729.84,Torre Abbey,POINT (-3.5337 50.4607)
9567.59,ID_143,50.64283,-1.94397,Z.marina,23.89,20025.0,North Sea,2.0,Northern European Seas,2.0,Temperate Northern Atlantic,32.0,Temperate,17340.12,Studland Bay,POINT (-1.94397 50.64283)
62128.73,ID_144,54.500977,18.566146,Z.marina,,20024.0,Baltic Sea,2.0,Northern European Seas,2.0,Temperate Northern Atlantic,29.0,Temperate,88571.45,GdaÅ„sk-Sopot (GS),POINT (18.566146 54.500977)
73801.7,ID_145,54.678026,18.675103,Z.marina,,20024.0,Baltic Sea,2.0,Northern European Seas,2.0,Temperate Northern Atlantic,29.0,Temperate,115800.48,Outer Puck Bay (Outer),POINT (18.675103 54.678026)
64102.13,ID_146,54.72583,18.567568,Z.marina,,20024.0,Baltic Sea,2.0,Northern European Seas,2.0,Temperate Northern Atlantic,29.0,Temperate,100974.65,Inner Puck Bay (Inner),POINT (18.567568 54.72583)
64102.13,ID_147,54.72583,18.567568,Z.marina,16.08,20024.0,Baltic Sea,2.0,Northern European Seas,2.0,Temperate Northern Atlantic,29.0,Temperate,100974.65,Inner Puck Bay (Inner),POINT (18.567568 54.72583)
5934.55,ID_148,43.3457,-124.318567,Z.marina,38.44,25057.0,"Oregon, Washington, Vancouver Coast and Shelf",10.0,Cold Temperate Northeast Pacific,3.0,Temperate Northern Pacific,54.0,Temperate,10708.95,Barview ,POINT (-124.318567 43.3457)
9672.52,ID_149,40.717217,-124.22645,Z.marina,96.83,25057.0,"Oregon, Washington, Vancouver Coast and Shelf",10.0,Cold Temperate Northeast Pacific,3.0,Temperate Northern Pacific,54.0,Temperate,17189.52,Humboldt Eelgrass,POINT (-124.22645 40.717217)
18292.91,ID_150,48.549217,-122.532367,Z. japonica,11.12,25056.0,Puget Trough/Georgia Basin,10.0,Cold Temperate Northeast Pacific,3.0,Temperate Northern Pacific,55.0,Temperate,31720.19,Padilla Lower,POINT (-122.532367 48.549217)
14469.99,ID_151,48.547883,-122.510383,Z.marina,17.05,25056.0,Puget Trough/Georgia Basin,10.0,Cold Temperate Northeast Pacific,3.0,Temperate Northern Pacific,55.0,Temperate,23431.26,Padilla Upper,POINT (-122.510383 48.547883)
4528.55,ID_152,44.625417,-124.021183,Z.marina,88.96,25057.0,"Oregon, Washington, Vancouver Coast and Shelf",10.0,Cold Temperate Northeast Pacific,3.0,Temperate Northern Pacific,54.0,Temperate,8183.4,Sallie's Bend,POINT (-124.021183 44.625417)
2996.67,ID_153,50.16163,-5.06049,Z.marina,39.13,20026.0,Celtic Seas,2.0,Northern European Seas,2.0,Temperate Northern Atlantic,30.0,Temperate,5434.89,Trefusis,POINT (-5.06049 50.16163)
19825.61,ID_155,50.17268,-5.0445,Z.marina,32.55,20026.0,Celtic Seas,2.0,Northern European Seas,2.0,Temperate Northern Atlantic,30.0,Temperate,22053.36,Mylor,POINT (-5.0445 50.17268)
10685.2,ID_156,50.15617,-5.01786,Z.marina,12.52,20026.0,Celtic Seas,2.0,Northern European Seas,2.0,Temperate Northern Atlantic,30.0,Temperate,19157.19,St Mawes,POINT (-5.01786 50.15617)
3115.72,ID_157,50.10256,-5.11291,Z.marina,16.7,20026.0,Celtic Seas,2.0,Northern European Seas,2.0,Temperate Northern Atlantic,30.0,Temperate,5499.35,Durgan,POINT (-5.11291 50.10256)
74897.6,ID_158,50.12517,-5.08618,Z.marina,10.79,20026.0,Celtic Seas,2.0,Northern European Seas,2.0,Temperate Northern Atlantic,30.0,Temperate,132711.35,Maenporth,POINT (-5.08618 50.12517)
2656.89,ID_159,50.8175,-0.8925,Z. marina/Z. angustifolia/Z. noltii/Ruppiaspp.,37.76,20025.0,North Sea,2.0,Northern European Seas,2.0,Temperate Northern Atlantic,32.0,Temperate,4161.94,Creek Rythe,POINT (-0.8925 50.8175)
4525.37,ID_160,50.798333,-0.996667,Z. marina/Z. angustifolia/Z. noltii/Ruppiaspp.,42.61,20025.0,North Sea,2.0,Northern European Seas,2.0,Temperate Northern Atlantic,32.0,Temperate,5777.08,Hayling Island,POINT (-0.996667 50.798333)
5063.89,ID_161,50.836944,-1.130833,Z. angustifolia/Z. noltii,37.69,20025.0,North Sea,2.0,Northern European Seas,2.0,Temperate Northern Atlantic,32.0,Temperate,8924.98,Porchester,POINT (-1.130833 50.836944)
96249.27,ID_162,50.833889,-1.04,Z. angustifolia,33.53,20025.0,North Sea,2.0,Northern European Seas,2.0,Temperate Northern Atlantic,32.0,Temperate,123307.62,Farlington Marshes,POINT (-1.04 50.833889)
8487.29,ID_163,50.765278,-1.282222,Z. marina/Z. noltii,11.85,20025.0,North Sea,2.0,Northern European Seas,2.0,Temperate Northern Atlantic,32.0,Temperate,11820.12,Cowes,POINT (-1.282222 50.765278)
4053.74,ID_164,56.444104,-2.848729,Z. angustifolia,5.54,20025.0,North Sea,2.0,Northern European Seas,2.0,Temperate Northern Atlantic,32.0,Temperate,7190.19,Ryde,POINT (-2.848729 56.444104)
5842.92,ID_165,42.328,-70.9619,Bare,79.29,25040.0,Gulf of Maine/Bay of Fundy,5.0,Cold Temperate Northwest Atlantic,2.0,Temperate Northern Atlantic,22.0,Temperate,12147.03,"Boston Harbor, MA",POINT (-70.9619 42.328)
90148.62,ID_166,41.3681,-71.6388,Bare,9.84,20041.0,Virginian,5.0,Cold Temperate Northwest Atlantic,2.0,Temperate Northern Atlantic,26.0,Temperate,159861.43,"Charlestown, RI",POINT (-71.6388 41.3681)
32284.58,ID_167,42.2468,-70.7796,Bare,3.05,25040.0,Gulf of Maine/Bay of Fundy,5.0,Cold Temperate Northwest Atlantic,2.0,Temperate Northern Atlantic,22.0,Temperate,72583.34,Cohasset. MA,POINT (-70.7796 42.2468)
15657.38,ID_168,42.5963,-70.6562,Bare,37.88,25040.0,Gulf of Maine/Bay of Fundy,5.0,Cold Temperate Northwest Atlantic,2.0,Temperate Northern Atlantic,22.0,Temperate,21874.54,"Gloucester, MA",POINT (-70.6562 42.5963)
193938.42,ID_169,43.0804,-70.8636,Bare,56.31,25040.0,Gulf of Maine/Bay of Fundy,5.0,Cold Temperate Northwest Atlantic,2.0,Temperate Northern Atlantic,22.0,Temperate,385843.81,"Great Bay, Ml",POINT (-70.86360000000001 43.0804)
13948.7,ID_170,41.4568,-70.5954,Bare,14.55,20041.0,Virginian,5.0,Cold Temperate Northwest Atlantic,2.0,Temperate Northern Atlantic,26.0,Temperate,25644.43,Martha's Vineyard. MA,POINT (-70.5954 41.4568)
14423.84,ID_171,42.4196,-70.9158,Bare,13.34,25040.0,Gulf of Maine/Bay of Fundy,5.0,Cold Temperate Northwest Atlantic,2.0,Temperate Northern Atlantic,22.0,Temperate,21193.98,"Nahant, M A",POINT (-70.9158 42.4196)
425.19,ID_172,41.7515,-69.9549,Bare,7.33,25040.0,Gulf of Maine/Bay of Fundy,5.0,Cold Temperate Northwest Atlantic,2.0,Temperate Northern Atlantic,22.0,Temperate,564.39,"Orleans, MA",POINT (-69.95489999999999 41.7515)
5273.82,ID_173,43.6698,-70.2398,Bare,60.66,25040.0,Gulf of Maine/Bay of Fundy,5.0,Cold Temperate Northwest Atlantic,2.0,Temperate Northern Atlantic,22.0,Temperate,7543.03,"Portland, ME",POINT (-70.2398 43.6698)
2846.28,ID_174,41.5804,-71.3203,Bare,30.12,20041.0,Virginian,5.0,Cold Temperate Northwest Atlantic,2.0,Temperate Northern Atlantic,26.0,Temperate,4552.5,"Prudence Island, RI",POINT (-71.3203 41.5804)
32294.57,ID_175,41.6165,-70.648,Bare,4.46,20041.0,Virginian,5.0,Cold Temperate Northwest Atlantic,2.0,Temperate Northern Atlantic,26.0,Temperate,48482.64,"W. Falmouth, MA",POINT (-70.648 41.6165)
5842.92,ID_176,42.328,-70.9619,Z.marina,47.2,25040.0,Gulf of Maine/Bay of Fundy,5.0,Cold Temperate Northwest Atlantic,2.0,Temperate Northern Atlantic,22.0,Temperate,12147.03,"Boston Harbor, MA",POINT (-70.9619 42.328)
90366.89,ID_177,41.3703,-71.6373,Z.marina,47.14,20041.0,Virginian,5.0,Cold Temperate Northwest Atlantic,2.0,Temperate Northern Atlantic,26.0,Temperate,160009.89,"Charlestown, RI",POINT (-71.6373 41.3703)
36582.04,ID_178,42.2496,-70.775,Z.marina,22.8,25040.0,Gulf of Maine/Bay of Fundy,5.0,Cold Temperate Northwest Atlantic,2.0,Temperate Northern Atlantic,22.0,Temperate,82462.42,Cohasset. MA,POINT (-70.77500000000001 42.2496)
15744.35,ID_179,42.5976,-70.6565,Z.marina,40.02,25040.0,Gulf of Maine/Bay of Fundy,5.0,Cold Temperate Northwest Atlantic,2.0,Temperate Northern Atlantic,22.0,Temperate,21996.62,"Gloucester, MA",POINT (-70.65649999999999 42.5976)
196123.35,ID_180,43.0746,-70.8754,Z.marina,64.03,25040.0,Gulf of Maine/Bay of Fundy,5.0,Cold Temperate Northwest Atlantic,2.0,Temperate Northern Atlantic,22.0,Temperate,388168.26,"Great Bay, Ml",POINT (-70.8754 43.0746)
13948.7,ID_181,41.4568,-70.5954,Z.marina,23.41,20041.0,Virginian,5.0,Cold Temperate Northwest Atlantic,2.0,Temperate Northern Atlantic,26.0,Temperate,25644.43,Martha's Vineyard. MA,POINT (-70.5954 41.4568)
13986.92,ID_182,42.4205,-70.9163,Z.marina,24.74,25040.0,Gulf of Maine/Bay of Fundy,5.0,Cold Temperate Northwest Atlantic,2.0,Temperate Northern Atlantic,22.0,Temperate,20116.07,"Nahant, M A",POINT (-70.91630000000001 42.4205)
425.19,ID_183,41.7515,-69.9549,Z.marina,16.11,25040.0,Gulf of Maine/Bay of Fundy,5.0,Cold Temperate Northwest Atlantic,2.0,Temperate Northern Atlantic,22.0,Temperate,564.39,"Orleans, MA",POINT (-69.95489999999999 41.7515)
5390.36,ID_184,43.6695,-70.2397,Z.marina,61.21,25040.0,Gulf of Maine/Bay of Fundy,5.0,Cold Temperate Northwest Atlantic,2.0,Temperate Northern Atlantic,22.0,Temperate,7580.13,"Portland, ME",POINT (-70.2397 43.6695)
1115.87,ID_185,41.5806,-71.321,Z.marina,20.22,20041.0,Virginian,5.0,Cold Temperate Northwest Atlantic,2.0,Temperate Northern Atlantic,26.0,Temperate,1196.88,"Prudence Island, RI",POINT (-71.321 41.5806)
9366.52,ID_186,41.6068,-70.648,Z.marina,22.51,20041.0,Virginian,5.0,Cold Temperate Northwest Atlantic,2.0,Temperate Northern Atlantic,26.0,Temperate,17843.14,"W. Falmouth, MA",POINT (-70.648 41.6068)
3300.85,ID_187,49.112116,-125.774796,Z.marina,10.74,25057.0,"Oregon, Washington, Vancouver Coast and Shelf",10.0,Cold Temperate Northeast Pacific,3.0,Temperate Northern Pacific,54.0,Temperate,6639.3,Grice Bay IT,POINT (-125.774796 49.112116)
1962.03,ID_188,49.21781,-125.92999,Z.marina,9.55,25057.0,"Oregon, Washington, Vancouver Coast and Shelf",10.0,Cold Temperate Northeast Pacific,3.0,Temperate Northern Pacific,54.0,Temperate,2856.8,Robert Point IT,POINT (-125.92999 49.21781)
2126.99,ID_189,49.21782,-125.9305,Z.marina,8.2,25057.0,"Oregon, Washington, Vancouver Coast and Shelf",10.0,Cold Temperate Northeast Pacific,3.0,Temperate Northern Pacific,54.0,Temperate,2939.77,Robert Point ST,POINT (-125.9305 49.21782)
3271.46,ID_190,49.112038,-125.775178,Z.marina,16.94,25057.0,"Oregon, Washington, Vancouver Coast and Shelf",10.0,Cold Temperate Northeast Pacific,3.0,Temperate Northern Pacific,54.0,Temperate,6568.04,Grice Bay ST,POINT (-125.775178 49.112038)
391.47,ID_191,49.138326,-125.674597,Z.marina,12.8,25057.0,"Oregon, Washington, Vancouver Coast and Shelf",10.0,Cold Temperate Northeast Pacific,3.0,Temperate Northern Pacific,54.0,Temperate,863.03,Kennedy Cove IT,POINT (-125.674597 49.138326)
394.89,ID_192,49.138351,-125.674482,Z.marina,21.06,25057.0,"Oregon, Washington, Vancouver Coast and Shelf",10.0,Cold Temperate Northeast Pacific,3.0,Temperate Northern Pacific,54.0,Temperate,863.35,Kennedy Cove ST,POINT (-125.674482 49.138351)
158038.17,ID_193,57.673431,-4.300982,Z. notlii,34.75,20025.0,North Sea,2.0,Northern European Seas,2.0,Temperate Northern Atlantic,32.0,Temperate,285046.8,Alness,POINT (-4.300982 57.673431)
1874.69,ID_195,57.481946,-4.293126,Z. marina/Z. noltii,25.81,20025.0,North Sea,2.0,Northern European Seas,2.0,Temperate Northern Atlantic,32.0,Temperate,2001.5,Beauly,POINT (-4.293126 57.481946)
7665.59,ID_196,56.002355,-3.512675,Z. marina/Z. noltii,52.13,20025.0,North Sea,2.0,Northern European Seas,2.0,Temperate Northern Atlantic,32.0,Temperate,9299.81,Blackness,POINT (-3.512675 56.002355)
4634.01,ID_198,57.659001,-4.155771,Z. marina/Z. noltii,14.39,20025.0,North Sea,2.0,Northern European Seas,2.0,Temperate Northern Atlantic,32.0,Temperate,7638.95,Cromarty,POINT (-4.155771 57.659001)
37621.85,ID_199,57.865609,-4.078713,Z. marina/Z. noltii,10.06,20025.0,North Sea,2.0,Northern European Seas,2.0,Temperate Northern Atlantic,32.0,Temperate,41479.24,Cuthill,POINT (-4.078713 57.865609)
27959.74,ID_200,57.687926,-4.237151,Z. marina/Z. noltii,25.45,20025.0,North Sea,2.0,Northern European Seas,2.0,Temperate Northern Atlantic,32.0,Temperate,24094.72,Dalmore,POINT (-4.237151 57.687926)
2954.35,ID_201,55.984074,-3.319614,Z. notlii,53.21,20025.0,North Sea,2.0,Northern European Seas,2.0,Temperate Northern Atlantic,32.0,Temperate,3487.83,Drum Sands,POINT (-3.319614 55.984074)
253152.85,ID_202,57.651175,-3.596808,Z. notlii,7.28,20025.0,North Sea,2.0,Northern European Seas,2.0,Temperate Northern Atlantic,32.0,Temperate,420769.74,Findhorn,POINT (-3.596808 57.651175)
83848.14,ID_206,56.720323,-2.479936,Z. marina/Z. noltii,31.11,20025.0,North Sea,2.0,Northern European Seas,2.0,Temperate Northern Atlantic,32.0,Temperate,104396.14,Montrose,POINT (-2.479936 56.720323)
8142.63,ID_207,57.501202,-4.152958,Z. marina/Z. noltii,7.6,20025.0,North Sea,2.0,Northern European Seas,2.0,Temperate Northern Atlantic,32.0,Temperate,12935.66,Nairn,POINT (-4.152958 57.501202)
11840.48,ID_208,57.727967,-4.076858,Z. marina/Z. noltii,29.01,20025.0,North Sea,2.0,Northern European Seas,2.0,Temperate Northern Atlantic,32.0,Temperate,20323.49,Nigg Bay,POINT (-4.076858 57.727967)
9808.14,ID_211,57.819693,-4.05225,Z. marina/Z. noltii,12.95,20025.0,North Sea,2.0,Northern European Seas,2.0,Temperate Northern Atlantic,32.0,Temperate,14721.96,Tain,POINT (-4.05225 57.819693)
2905.42,ID_212,56.447841,-2.875232,Z. notlii,67.37,20025.0,North Sea,2.0,Northern European Seas,2.0,Temperate Northern Atlantic,32.0,Temperate,5105.22,Tayport (1),POINT (-2.875232 56.447841)
4053.74,ID_213,56.444104,-2.848729,Z.marina,11.56,20025.0,North Sea,2.0,Northern European Seas,2.0,Temperate Northern Atlantic,32.0,Temperate,7190.19,Tayport (2),POINT (-2.848729 56.444104)
39314.17,ID_214,56.056841,-3.572439,Z. notlii,53.61,20025.0,North Sea,2.0,Northern European Seas,2.0,Temperate Northern Atlantic,32.0,Temperate,48300.07,Torry Bay,POINT (-3.572439 56.056841)
3142.69,ID_215,55.344914,-133.0011,Z.marina,10.98,25055.0,North American Pacific Fijordland,10.0,Cold Temperate Northeast Pacific,3.0,Temperate Northern Pacific,52.0,Temperate,3167.05,Trocadero Bay,POINT (-133.0011 55.344914)
575.43,ID_216,55.52904,-133.147,Z.marina,15.29,25055.0,North American Pacific Fijordland,10.0,Cold Temperate Northeast Pacific,3.0,Temperate Northern Pacific,52.0,Temperate,729.88,South Wadleigh Island,POINT (-133.147 55.52904)
4336.82,ID_217,55.48442,-133.175,Z.marina,11.19,25055.0,North American Pacific Fijordland,10.0,Cold Temperate Northeast Pacific,3.0,Temperate Northern Pacific,52.0,Temperate,5747.11,South Fish Egg Island,POINT (-133.175 55.48442)
1171.34,ID_218,55.26366,-132.995,Z.marina,40.46,25055.0,North American Pacific Fijordland,10.0,Cold Temperate Northeast Pacific,3.0,Temperate Northern Pacific,52.0,Temperate,1498.86,Soda Bay,POINT (-132.995 55.26366)
1966.14,ID_219,55.67264,-133.378,Z.marina,45.05,25055.0,North American Pacific Fijordland,10.0,Cold Temperate Northeast Pacific,3.0,Temperate Northern Pacific,52.0,Temperate,2405.9,Salt Lake Bay,POINT (-133.378 55.67264)
1293.71,ID_220,51.65,-128.12,Z.marina,18.34,25055.0,North American Pacific Fijordland,10.0,Cold Temperate Northeast Pacific,3.0,Temperate Northern Pacific,52.0,Temperate,2552.77,Pruth Bay,POINT (-128.12 51.65)
1293.71,ID_221,51.65,-128.12,Z.marina,20.53,25055.0,North American Pacific Fijordland,10.0,Cold Temperate Northeast Pacific,3.0,Temperate Northern Pacific,52.0,Temperate,2552.77,Pruth Bay,POINT (-128.12 51.65)
1293.71,ID_222,51.65,-128.12,Bare,17.43,25055.0,North American Pacific Fijordland,10.0,Cold Temperate Northeast Pacific,3.0,Temperate Northern Pacific,52.0,Temperate,2552.77,Pruth Bay,POINT (-128.12 51.65)
1913.16,ID_223,55.7073,-133.342,Z.marina,17.27,25055.0,North American Pacific Fijordland,10.0,Cold Temperate Northeast Pacific,3.0,Temperate Northern Pacific,52.0,Temperate,2261.2,Nossuk Bay,POINT (-133.342 55.7073)
1613.16,ID_224,55.22962,-132.925,Z.marina,13.12,25055.0,North American Pacific Fijordland,10.0,Cold Temperate Northeast Pacific,3.0,Temperate Northern Pacific,52.0,Temperate,4012.75,North Pass,POINT (-132.925 55.22962)
7256.59,ID_225,47.334,-122.491,Z.marina,13.94,25056.0,Puget Trough/Georgia Basin,10.0,Cold Temperate Northeast Pacific,3.0,Temperate Northern Pacific,55.0,Temperate,12586.72,Neill Point (50.2),POINT (-122.491 47.334)
919.53,ID_226,55.862405,-133.190722,Z.marina,17.38,25055.0,North American Pacific Fijordland,10.0,Cold Temperate Northeast Pacific,3.0,Temperate Northern Pacific,52.0,Temperate,1448.78,Naukati Bay,POINT (-133.190722 55.862405)
2248.25,ID_227,55.25051,-132.883,Z.marina,13.71,25055.0,North American Pacific Fijordland,10.0,Cold Temperate Northeast Pacific,3.0,Temperate Northern Pacific,52.0,Temperate,6105.73,Natzuhini Bay,POINT (-132.883 55.25051)
3528.17,ID_228,52.062,-128.412,Z.marina,29.44,25055.0,North American Pacific Fijordland,10.0,Cold Temperate Northeast Pacific,3.0,Temperate Northern Pacific,52.0,Temperate,3647.09,McMullins North,POINT (-128.412 52.062)
2103.86,ID_229,52.06,-128.41,Bare,20.35,25055.0,North American Pacific Fijordland,10.0,Cold Temperate Northeast Pacific,3.0,Temperate Northern Pacific,52.0,Temperate,3393.37,McMullins North,POINT (-128.41 52.06)
5165.33,ID_230,49.67,-124.95,Bare,22.92,25056.0,Puget Trough/Georgia Basin,10.0,Cold Temperate Northeast Pacific,3.0,Temperate Northern Pacific,55.0,Temperate,10910.62,K'omoks Estuary,POINT (-124.95 49.67)
5165.33,ID_231,49.67,-124.95,Bare,15.67,25056.0,Puget Trough/Georgia Basin,10.0,Cold Temperate Northeast Pacific,3.0,Temperate Northern Pacific,55.0,Temperate,10910.62,K'omoks Estuary,POINT (-124.95 49.67)
2386.11,ID_232,49.677,-124.972,Z.marina,25.38,25056.0,Puget Trough/Georgia Basin,10.0,Cold Temperate Northeast Pacific,3.0,Temperate Northern Pacific,55.0,Temperate,7418.79,K'omoks Estuary,POINT (-124.972 49.677)
2386.11,ID_233,49.677,-124.972,Z.marina,34.0,25056.0,Puget Trough/Georgia Basin,10.0,Cold Temperate Northeast Pacific,3.0,Temperate Northern Pacific,55.0,Temperate,7418.79,K'omoks Estuary,POINT (-124.972 49.677)
346618.82,ID_234,43.399,-124.323,Z.marina,39.12,25057.0,"Oregon, Washington, Vancouver Coast and Shelf",10.0,Cold Temperate Northeast Pacific,3.0,Temperate Northern Pacific,54.0,Temperate,559355.36,Hidden Creek,POINT (-124.323 43.399)
1185.4,ID_235,55.155625,-132.589934,Z.marina,9.24,25055.0,North American Pacific Fijordland,10.0,Cold Temperate Northeast Pacific,3.0,Temperate Northern Pacific,52.0,Temperate,1400.37,Hetta Cove,POINT (-132.589934 55.155625)
80069.22,ID_236,51.92,-128.46,Z.marina,7.4,25055.0,North American Pacific Fijordland,10.0,Cold Temperate Northeast Pacific,3.0,Temperate Northern Pacific,52.0,Temperate,116208.44,Goose SW,POINT (-128.46 51.92)
80069.22,ID_237,51.92,-128.46,Bare,7.43,25055.0,North American Pacific Fijordland,10.0,Cold Temperate Northeast Pacific,3.0,Temperate Northern Pacific,52.0,Temperate,116208.44,Goose SW,POINT (-128.46 51.92)
1519.13,ID_238,55.19286,-132.9,Z.marina,12.67,25055.0,North American Pacific Fijordland,10.0,Cold Temperate Northeast Pacific,3.0,Temperate Northern Pacific,52.0,Temperate,2873.94,Goat Mouth Inlet,POINT (-132.9 55.19286)
2247.97,ID_239,55.552669,-133.431392,Z.marina,17.81,25055.0,North American Pacific Fijordland,10.0,Cold Temperate Northeast Pacific,3.0,Temperate Northern Pacific,52.0,Temperate,2883.6,Garcia Bay,POINT (-133.431392 55.552669)
1801.13,ID_240,55.0848,-132.826,Z.marina,51.25,25055.0,North American Pacific Fijordland,10.0,Cold Temperate Northeast Pacific,3.0,Temperate Northern Pacific,52.0,Temperate,3077.2,Dunbar Inlet,POINT (-132.826 55.0848)
3491.92,ID_241,47.522,-122.508,Z.marina,6.57,25056.0,Puget Trough/Georgia Basin,10.0,Cold Temperate Northeast Pacific,3.0,Temperate Northern Pacific,55.0,Temperate,2289.68,Dumas Bay (50.1),POINT (-122.508 47.522)
984.54,ID_242,55.80692,-133.171,Z.marina,14.27,25055.0,North American Pacific Fijordland,10.0,Cold Temperate Northeast Pacific,3.0,Temperate Northern Pacific,52.0,Temperate,1123.03,Chusini Cove,POINT (-133.171 55.80692)
96150.91,ID_243,51.67,-128.12,Z.marina,6.65,25055.0,North American Pacific Fijordland,10.0,Cold Temperate Northeast Pacific,3.0,Temperate Northern Pacific,52.0,Temperate,84159.43,Choked Passage,POINT (-128.12 51.67)
96150.91,ID_244,51.67,-128.12,Bare,6.0,25055.0,North American Pacific Fijordland,10.0,Cold Temperate Northeast Pacific,3.0,Temperate Northern Pacific,52.0,Temperate,84159.43,Choked Passage,POINT (-128.12 51.67)
1128.28,ID_245,55.62082,-133.38664,Z.marina,11.63,25055.0,North American Pacific Fijordland,10.0,Cold Temperate Northeast Pacific,3.0,Temperate Northern Pacific,52.0,Temperate,1203.48,Blanquizal Point,POINT (-133.38664 55.62082)
2547.65,ID_246,58.298611,11.492778,Z.marina,68.71,20025.0,North Sea,2.0,Northern European Seas,2.0,Temperate Northern Atlantic,32.0,Temperate,3558.11,Finnsbo,POINT (11.492778 58.298611)
2941.2,ID_247,57.89,11.66,Z.marina,53.31,20025.0,North Sea,2.0,Northern European Seas,2.0,Temperate Northern Atlantic,32.0,Temperate,4783.4,Storebrorn,POINT (11.66 57.89)
6397.72,ID_248,58.01,11.71,Z.marina,67.82,20025.0,North Sea,2.0,Northern European Seas,2.0,Temperate Northern Atlantic,32.0,Temperate,10779.66,Wallhamn,POINT (11.71 58.01)
3254.46,ID_249,58.25,11.45,Z.marina,60.0,20025.0,North Sea,2.0,Northern European Seas,2.0,Temperate Northern Atlantic,32.0,Temperate,5101.93,Bökevik,POINT (11.45 58.25)
11549.82,ID_250,46.47,-124.02,Z.marina,25.84,25057.0,"Oregon, Washington, Vancouver Coast and Shelf",10.0,Cold Temperate Northeast Pacific,3.0,Temperate Northern Pacific,54.0,Temperate,20858.56,Willapa Bay,POINT (-124.02 46.47)
5021.7,ID_251,34.3,132.91,Z.marina,23.52,20051.0,Central Kuroshio Current,9.0,Warm Temperate Northwest Pacific,3.0,Temperate Northern Pacific,42.0,Temperate,9373.21,Ikunoshima,POINT (132.91 34.3)
2032.47,ID_252,58.248056,11.4475,Z.marina,38.76,20025.0,North Sea,2.0,Northern European Seas,2.0,Temperate Northern Atlantic,32.0,Temperate,3163.1,Kristineberg,POINT (11.4475 58.248056)
5314.43,ID_253,43.02,144.9,Z.marina,21.41,20047.0,Oyashio Current,8.0,Cold Temperate Northwest Pacific,3.0,Temperate Northern Pacific,46.0,Temperate,8844.12,Akkeshi-ko,POINT (144.9 43.02)
2515.8,ID_254,34.89,128.02,Z.marina,25.36,20052.0,East China Sea,9.0,Warm Temperate Northwest Pacific,3.0,Temperate Northern Pacific,43.0,Temperate,5504.02,Dongdae Bay,POINT (128.02 34.89)
117588.25,ID_255,55.44,10.55,Z.marina,17.61,20025.0,North Sea,2.0,Northern European Seas,2.0,Temperate Northern Atlantic,32.0,Temperate,178083.36,Kertinge,POINT (10.55 55.44)
5824.59,ID_256,37.003889,-7.826667,Z.marina,10.98,20027.0,South European Atlantic Shelf,3.0,Lusitanian,2.0,Temperate Northern Atlantic,40.0,Temperate,10274.76,Culatra,POINT (-7.826667 37.003889)
6717.6,ID_257,58.807222,17.694444,Z.marina,4.68,20024.0,Baltic Sea,2.0,Northern European Seas,2.0,Temperate Northern Atlantic,29.0,Temperate,10255.43,Stora Sand,POINT (17.694444 58.807222)
50271.75,ID_258,57.01,9.05,Z.marina,11.5,20025.0,North Sea,2.0,Northern European Seas,2.0,Temperate Northern Atlantic,32.0,Temperate,70403.31,Løgstør,POINT (9.050000000000001 57.01)
10106.82,ID_259,54.99,10.65,Z.marina,18.76,20025.0,North Sea,2.0,Northern European Seas,2.0,Temperate Northern Atlantic,32.0,Temperate,13494.34,Lunkebugt,POINT (10.65 54.99)
4863.86,ID_260,56.67,8.58,Z.marina,54.08,20025.0,North Sea,2.0,Northern European Seas,2.0,Temperate Northern Atlantic,32.0,Temperate,6552.57,Agero 3,POINT (8.58 56.67)
8096.32,ID_261,56.77,8.48,Z.marina,42.81,20025.0,North Sea,2.0,Northern European Seas,2.0,Temperate Northern Atlantic,32.0,Temperate,11015.15,Visby,POINT (8.48 56.77)
4261.26,ID_262,42.330278,27.755556,Z.marina,11.33,20044.0,Black Sea,7.0,Black Sea,2.0,Temperate Northern Atlantic,41.0,Temperate,7439.08,Ropotamo,POINT (27.755556 42.330278)
2799.48,ID_263,55.04,10.69,Z.marina,265.23,20025.0,North Sea,2.0,Northern European Seas,2.0,Temperate Northern Atlantic,32.0,Temperate,4409.76,Thurøbund,POINT (10.69 55.04)
14899.2,ID_264,42.4275,27.651389,Z.marina,3.18,20044.0,Black Sea,7.0,Black Sea,2.0,Temperate Northern Atlantic,41.0,Temperate,7841.53,Garden,POINT (27.651389 42.4275)
1540.94,ID_265,32.7,-117.17,Z.marina,6.23,25059.0,Southern California Bight,11.0,Warm Temperate Northeast Pacific,3.0,Temperate Northern Pacific,58.0,Temperate,1896.63,Coronado,POINT (-117.17 32.7)
11644.48,ID_266,40.86,-72.45,Z.marina,9.25,20041.0,Virginian,5.0,Cold Temperate Northwest Atlantic,2.0,Temperate Northern Atlantic,26.0,Temperate,21579.02,Shinnecock Bay,POINT (-72.45 40.86)
21998.71,ID_267,59.92,21.81,Z.marina,4.63,20024.0,Baltic Sea,2.0,Northern European Seas,2.0,Temperate Northern Atlantic,29.0,Temperate,35815.38,Fårö,POINT (21.81 59.92)
46743.88,ID_268,59.84,23.24,Z.marina,5.53,20024.0,Baltic Sea,2.0,Northern European Seas,2.0,Temperate Northern Atlantic,29.0,Temperate,57608.27,Tvärminne,POINT (23.24 59.84)
19902.02,ID_269,52.94,-4.56,Z.marina,10.31,20026.0,Celtic Seas,2.0,Northern European Seas,2.0,Temperate Northern Atlantic,30.0,Temperate,20464.61,Porth Dinllaen,POINT (-4.56 52.94)
85398.03,ID_270,59.82,22.99,Z.marina,3.97,20024.0,Baltic Sea,2.0,Northern European Seas,2.0,Temperate Northern Atlantic,29.0,Temperate,158930.52,Kolaviken,POINT (22.99 59.82)
39590.92,ID_271,60.13,21.44,Z.marina,11.93,20024.0,Baltic Sea,2.0,Northern European Seas,2.0,Temperate Northern Atlantic,29.0,Temperate,64795.24,Lyddaren,POINT (21.44 60.13)
10297.48,ID_272,49.0,-123.1,Z.marina,10.86,25056.0,Puget Trough/Georgia Basin,10.0,Cold Temperate Northeast Pacific,3.0,Temperate Northern Pacific,55.0,Temperate,15174.32,Tsawwassen,POINT (-123.1 49)
10218.83,ID_273,60.12,21.86,Z.marina,7.84,20024.0,Baltic Sea,2.0,Northern European Seas,2.0,Temperate Northern Atlantic,29.0,Temperate,19218.3,Sackholm,POINT (21.86 60.12)
7880.92,ID_274,60.11,21.71,Z.marina,6.38,20024.0,Baltic Sea,2.0,Northern European Seas,2.0,Temperate Northern Atlantic,29.0,Temperate,13220.99,Ängsö,POINT (21.71 60.11)
17659.45,ID_275,55.53,10.6,Z.marina,3.98,20025.0,North Sea,2.0,Northern European Seas,2.0,Temperate Northern Atlantic,32.0,Temperate,26901.77,Dalby,POINT (10.6 55.53)
10205.14,ID_276,58.04,11.8,Z.marina,42.42,20025.0,North Sea,2.0,Northern European Seas,2.0,Temperate Northern Atlantic,32.0,Temperate,17497.36,Hakefjord,POINT (11.8 58.04)
12162.86,ID_277,60.21,21.7,Z.marina,5.25,20024.0,Baltic Sea,2.0,Northern European Seas,2.0,Temperate Northern Atlantic,29.0,Temperate,20487.49,Jänisholm,POINT (21.7 60.21)
90734.29,ID_278,59.88,21.74,Z.marina,3.53,20024.0,Baltic Sea,2.0,Northern European Seas,2.0,Temperate Northern Atlantic,29.0,Temperate,141561.6,Långören,POINT (21.74 59.88)
90316.9,ID_279,49.11,-68.17,Z.marina,7.25,20037.0,Gulf of St. Lawrence - Eastern Scotian Shelf,5.0,Cold Temperate Northwest Atlantic,2.0,Temperate Northern Atlantic,23.0,Temperate,101261.46,Baie-St-Ludger,POINT (-68.17 49.11)
30309.12,ID_280,58.803889,17.792222,Z.marina,3.46,20024.0,Baltic Sea,2.0,Northern European Seas,2.0,Temperate Northern Atlantic,29.0,Temperate,62639.68,Torö,POINT (17.792222 58.803889)
2905.42,ID_281,56.447841,-2.875232,Z.marina,14.95,20025.0,North Sea,2.0,Northern European Seas,2.0,Temperate Northern Atlantic,32.0,Temperate,5105.22,San Quintin Bay,POINT (-2.875232 56.447841)
39314.17,ID_282,56.056841,-3.572439,Z.marina,16.74,20025.0,North Sea,2.0,Northern European Seas,2.0,Temperate Northern Atlantic,32.0,Temperate,48300.07,Dorothy Cove,POINT (-3.572439 56.056841)
4039.86,ID_283,58.34,11.55,Z.marina,19.85,20025.0,North Sea,2.0,Northern European Seas,2.0,Temperate Northern Atlantic,32.0,Temperate,6355.61,Torgestad,POINT (11.55 58.34)
80575.45,ID_284,58.8,17.68,Z.marina,4.23,20024.0,Baltic Sea,2.0,Northern European Seas,2.0,Temperate Northern Atlantic,29.0,Temperate,110581.53,Långskär,POINT (17.68 58.8)
1368.44,ID_285,67.21,15.0,Z.marina,14.53,20023.0,Northern Norway and Finnmark,2.0,Northern European Seas,2.0,Temperate Northern Atlantic,28.0,Temperate,2555.32,Rövika,POINT (15 67.20999999999999)
2566.31,ID_286,38.32,-123.05,Z.marina,19.49,25058.0,Northern California,10.0,Cold Temperate Northeast Pacific,3.0,Temperate Northern Pacific,53.0,Temperate,4003.96,Bodega Bay,POINT (-123.05 38.32)
10428.89,ID_287,34.67,-76.57,Z.marina,25.58,20041.0,Virginian,5.0,Cold Temperate Northwest Atlantic,2.0,Temperate Northern Atlantic,26.0,Temperate,17026.85,Shackleford Island,POINT (-76.56999999999999 34.67)
1124.27,ID_288,38.317434,-123.054178,Z.marina,27.5,25058.0,Northern California,10.0,Cold Temperate Northeast Pacific,3.0,Temperate Northern Pacific,53.0,Temperate,1490.66,Bodega Bay,POINT (-123.054178 38.317434)
3264.22,ID_289,40.8021,-124.181025,Z.marina,31.25,25057.0,"Oregon, Washington, Vancouver Coast and Shelf",10.0,Cold Temperate Northeast Pacific,3.0,Temperate Northern Pacific,54.0,Temperate,5869.52,Humboldt Bay,POINT (-124.181025 40.8021)
3336.35,ID_290,40.80215,-124.180715,Z.marina,26.25,25057.0,"Oregon, Washington, Vancouver Coast and Shelf",10.0,Cold Temperate Northeast Pacific,3.0,Temperate Northern Pacific,54.0,Temperate,6022.54,Humboldt Bay,POINT (-124.180715 40.80215)
5231.84,ID_291,33.609616,-117.900177,Z.marina,36.25,25059.0,Southern California Bight,11.0,Warm Temperate Northeast Pacific,3.0,Temperate Northern Pacific,58.0,Temperate,10654.67,Newport Bay,POINT (-117.900177 33.609616)
17766.72,ID_292,32.789184,-117.225867,Z.marina,32.5,25059.0,Southern California Bight,11.0,Warm Temperate Northeast Pacific,3.0,Temperate Northern Pacific,58.0,Temperate,25950.39,Mission Bay,POINT (-117.225867 32.789184)
17801.87,ID_293,32.789571,-117.225958,Z.marina,22.5,25059.0,Southern California Bight,11.0,Warm Temperate Northeast Pacific,3.0,Temperate Northern Pacific,58.0,Temperate,26017.57,Mission Bay,POINT (-117.225958 32.789571)
7166.31,ID_294,38.16365,-122.90096,Z.marina,26.25,25058.0,Northern California,10.0,Cold Temperate Northeast Pacific,3.0,Temperate Northern Pacific,53.0,Temperate,14158.98,Tomales Bay,POINT (-122.90096 38.16365)
588.32,ID_295,58.274028,11.505806,Z.marina,8.09,20025.0,North Sea,2.0,Northern European Seas,2.0,Temperate Northern Atlantic,32.0,Temperate,909.11,Getevik,POINT (11.505806 58.274028)
2035.64,ID_296,58.248056,11.447611,Z.marina,10.44,20025.0,North Sea,2.0,Northern European Seas,2.0,Temperate Northern Atlantic,32.0,Temperate,3174.3,Kris,POINT (11.447611 58.248056)
8745.14,ID_297,58.262678,11.492692,Z.marina,21.48,20025.0,North Sea,2.0,Northern European Seas,2.0,Temperate Northern Atlantic,32.0,Temperate,16083.49,Lindholmen,POINT (11.492692 58.262678)
1441.95,ID_298,58.363778,11.44475,Z.marina,31.21,20025.0,North Sea,2.0,Northern European Seas,2.0,Temperate Northern Atlantic,32.0,Temperate,2120.99,Rixö,POINT (11.44475 58.363778)
892.88,ID_299,58.345389,11.368833,Z.marina,23.15,20025.0,North Sea,2.0,Northern European Seas,2.0,Temperate Northern Atlantic,32.0,Temperate,1736.27,Sladholmen ,POINT (11.368833 58.345389)
2164.42,ID_300,58.366361,11.377306,Z.marina,27.28,20025.0,North Sea,2.0,Northern European Seas,2.0,Temperate Northern Atlantic,32.0,Temperate,2933.67,Styrsvik,POINT (11.377306 58.366361)
1523.57,ID_301,58.347886,11.457142,Z.marina,29.94,20025.0,North Sea,2.0,Northern European Seas,2.0,Temperate Northern Atlantic,32.0,Temperate,2096.88,Trommelkilen,POINT (11.457142 58.347886)
64536.16,ID_302,54.383434,11.006999,,,20025.0,North Sea,2.0,Northern European Seas,2.0,Temperate Northern Atlantic,32.0,Temperate,107339.39,Graswarder,POINT (11.006999 54.383434)
5392.88,ID_303,54.393652,10.192829,,,20025.0,North Sea,2.0,Northern European Seas,2.0,Temperate Northern Atlantic,32.0,Temperate,8332.01,Falckenstein,POINT (10.192829 54.393652)
8755.3,ID_304,54.761949,9.877933,,,20025.0,North Sea,2.0,Northern European Seas,2.0,Temperate Northern Atlantic,32.0,Temperate,12881.45,Wackerballig,POINT (9.877933000000001 54.761949)
77818.18,ID_305,54.353833,11.088549,,,20025.0,North Sea,2.0,Northern European Seas,2.0,Temperate Northern Atlantic,32.0,Temperate,112932.94,Grossenbrode,POINT (11.088549 54.353833)
4512.87,ID_306,54.34387,10.174679,,,20025.0,North Sea,2.0,Northern European Seas,2.0,Temperate Northern Atlantic,32.0,Temperate,7514.43,Hasselfelde,POINT (10.174679 54.34387)
6000.2,ID_307,54.686087,10.006539,,,20025.0,North Sea,2.0,Northern European Seas,2.0,Temperate Northern Atlantic,32.0,Temperate,9424.08,Maasholm,POINT (10.006539 54.686087)
38853.38,ID_308,54.463045,9.929015,,,20025.0,North Sea,2.0,Northern European Seas,2.0,Temperate Northern Atlantic,32.0,Temperate,72175.42,Aschau,POINT (9.929015 54.463045)
2907.55,ID_309,54.346027,10.154903,,,20025.0,North Sea,2.0,Northern European Seas,2.0,Temperate Northern Atlantic,32.0,Temperate,4294.84,Seebar,POINT (10.154903 54.346027)
119041.21,ID_310,54.528839,11.116923,,,20025.0,North Sea,2.0,Northern European Seas,2.0,Temperate Northern Atlantic,32.0,Temperate,213779.69,Teichhof,POINT (11.116923 54.528839)
73337.67,ID_311,54.436811,10.323064,,,20025.0,North Sea,2.0,Northern European Seas,2.0,Temperate Northern Atlantic,32.0,Temperate,135435.25,Heidkate,POINT (10.323064 54.436811)
29266.31,ID_312,54.071436,10.786538,,,20025.0,North Sea,2.0,Northern European Seas,2.0,Temperate Northern Atlantic,32.0,Temperate,44642.03,Sierksdorf,POINT (10.786538 54.071436)
50467.17,ID_313,53.99514,10.813332,,,20025.0,North Sea,2.0,Northern European Seas,2.0,Temperate Northern Atlantic,32.0,Temperate,79710.86,Niendorf,POINT (10.813332 53.99514)
8139.16,ID_314,54.839827,9.519709,,,20025.0,North Sea,2.0,Northern European Seas,2.0,Temperate Northern Atlantic,32.0,Temperate,12049.59,Glucksburg,POINT (9.519709000000001 54.839827)
5878.5,ID_315,54.447245,11.046403,,,20025.0,North Sea,2.0,Northern European Seas,2.0,Temperate Northern Atlantic,32.0,Temperate,8102.33,Orth,POINT (11.046403 54.447245)
122191.38,ID_316,54.191114,11.07453,,,20025.0,North Sea,2.0,Northern European Seas,2.0,Temperate Northern Atlantic,32.0,Temperate,218444.77,Kellenhusen,POINT (11.07453 54.191114)
50716.81,ID_317,54.573716,13.465642,,,20024.0,Baltic Sea,2.0,Northern European Seas,2.0,Temperate Northern Atlantic,29.0,Temperate,75544.04,Glowe,POINT (13.465642 54.573716)
69477.93,ID_318,54.13708,13.539405,,,20024.0,Baltic Sea,2.0,Northern European Seas,2.0,Temperate Northern Atlantic,29.0,Temperate,118874.42,Gahlkow,POINT (13.539405 54.13708)
83752.08,ID_319,54.337262,13.753084,,,20024.0,Baltic Sea,2.0,Northern European Seas,2.0,Temperate Northern Atlantic,29.0,Temperate,117487.94,Gohren,POINT (13.753084 54.337262)
14063.3,ID_320,54.774234,9.886736,,,20025.0,North Sea,2.0,Northern European Seas,2.0,Temperate Northern Atlantic,32.0,Temperate,21903.84,Gelting_Bay,POINT (9.886736000000001 54.774234)
66102.63,ID_321,54.796244,9.930325,,,20025.0,North Sea,2.0,Northern European Seas,2.0,Temperate Northern Atlantic,32.0,Temperate,90365.0,Gelting_LH,POINT (9.930325 54.796244)
790.27,ID_322,50.385877,-4.203401,,,20026.0,Celtic Seas,2.0,Northern European Seas,2.0,Temperate Northern Atlantic,30.0,Temperate,1453.8,Wilcove,POINT (-4.203401 50.385877)
1360.71,ID_323,50.379904,-4.19911,,,20026.0,Celtic Seas,2.0,Northern European Seas,2.0,Temperate Northern Atlantic,30.0,Temperate,2441.17,Thanckes Lake ,POINT (-4.19911 50.379904)
1506.68,ID_324,50.256756,-3.771862,,,20026.0,Celtic Seas,2.0,Northern European Seas,2.0,Temperate Northern Atlantic,30.0,Temperate,2583.77,Collapit Creek,POINT (-3.771862 50.256756)
650.08,ID_325,36.816413,-121.766681,Z.marina,,25058.0,Northern California,10.0,Cold Temperate Northeast Pacific,3.0,Temperate Northern Pacific,53.0,Temperate,965.93,Eklhorn Slough,POINT (-121.766681 36.816413)
